STARLINK-2448
1 48111U 21027V   26090.27584204  .00072201  00000+0  22053-2 0  9991
2 48111  53.1596  54.3945 0003001 113.2239 246.9079 15.33261672275974
